{"type":"FeatureCollection","features":[{"type":"Feature","properties":{"count":131},"geometry":{"type":"Point","coordinates":[77.0,20.0]}},{"type":"Feature","properties":{"count":130},"geometry":{"type":"Point","coordinates":[-98.5,40.0]}},{"type":"Feature","properties":{"count":127},"geometry":{"type":"Point","coordinates":[-6.5,54.5]}},{"type":"Feature","properties":{"count":124},"geometry":{"type":"Point","coordinates":[35.0,31.5]}},{"type":"Feature","properties":{"count":95},"geometry":{"type":"Point","coordinates":[-4.0,54.0]}},{"type":"Feature","properties":{"count":93},"geometry":{"type":"Point","coordinates":[-8.0,53.0]}},{"type":"Feature","properties":{"count":89},"geometry":{"type":"Point","coordinates":[104.0,1.5]}},{"type":"Feature","properties":{"count":84},"geometry":{"type":"Point","coordinates":[32.0,49.0]}},{"type":"Feature","properties":{"count":82},"geometry":{"type":"Point","coordinates":[100.0,60.0]}},{"type":"Feature","properties":{"count":67},"geometry":{"type":"Point","coordinates":[105.0,35.0]}},{"type":"Feature","properties":{"count":58},"geometry":{"type":"Point","coordinates":[-84.0,40.0]}},{"type":"Feature","properties":{"count":56},"geometry":{"type":"Point","coordinates":[53.0,32.0]}},{"type":"Feature","properties":{"count":56},"geometry":{"type":"Point","coordinates":[-77.0,39.0]}},{"type":"Feature","properties":{"count":56},"geometry":{"type":"Point","coordinates":[-75.0,42.0]}},{"type":"Feature","properties":{"count":56},"geometry":{"type":"Point","coordinates":[-83.0,40.5]}},{"type":"Feature","properties":{"count":38},"geometry":{"type":"Point","coordinates":[57.0,21.0]}},{"type":"Feature","properties":{"count":38},"geometry":{"type":"Point","coordinates":[-96.0,60.0]}},{"type":"Feature","properties":{"count":35},"geometry":{"type":"Point","coordinates":[45.0,25.0]}},{"type":"Feature","properties":{"count":35},"geometry":{"type":"Point","coordinates":[77.0,28.5]}},{"type":"Feature","properties":{"count":35},"geometry":{"type":"Point","coordinates":[90.0,24.0]}},{"type":"Feature","properties":{"count":33},"geometry":{"type":"Point","coordinates":[-55.0,-10.0]}},{"type":"Feature","properties":{"count":31},"geometry":{"type":"Point","coordinates":[-86.5,35.5]}},{"type":"Feature","properties":{"count":28},"geometry":{"type":"Point","coordinates":[127.0,40.0]}},{"type":"Feature","properties":{"count":27},"geometry":{"type":"Point","coordinates":[127.5,37.0]}},{"type":"Feature","properties":{"count":24},"geometry":{"type":"Point","coordinates":[73.0,19.0]}},{"type":"Feature","properties":{"count":21},"geometry":{"type":"Point","coordinates":[35.0,32.0]}},{"type":"Feature","properties":{"count":21},"geometry":{"type":"Point","coordinates":[70.0,30.0]}},{"type":"Feature","properties":{"count":20},"geometry":{"type":"Point","coordinates":[-76.5,42.5]}},{"type":"Feature","properties":{"count":20},"geometry":{"type":"Point","coordinates":[30.5,50.5]}},{"type":"Feature","properties":{"count":20},"geometry":{"type":"Point","coordinates":[47.5,15.5]}},{"type":"Feature","properties":{"count":19},"geometry":{"type":"Point","coordinates":[-4.0,40.0]}},{"type":"Feature","properties":{"count":18},"geometry":{"type":"Point","coordinates":[-65.0,32.5]}},{"type":"Feature","properties":{"count":18},"geometry":{"type":"Point","coordinates":[0.0,51.5]}},{"type":"Feature","properties":{"count":16},"geometry":{"type":"Point","coordinates":[29.0,-19.0]}},{"type":"Feature","properties":{"count":15},"geometry":{"type":"Point","coordinates":[54.0,24.0]}},{"type":"Feature","properties":{"count":15},"geometry":{"type":"Point","coordinates":[55.5,25.5]}},{"type":"Feature","properties":{"count":15},"geometry":{"type":"Point","coordinates":[-71.0,42.5]}},{"type":"Feature","properties":{"count":13},"geometry":{"type":"Point","coordinates":[33.0,35.0]}},{"type":"Feature","properties":{"count":11},"geometry":{"type":"Point","coordinates":[37.5,56.0]}},{"type":"Feature","properties":{"count":11},"geometry":{"type":"Point","coordinates":[-46.5,-23.5]}},{"type":"Feature","properties":{"count":11},"geometry":{"type":"Point","coordinates":[35.0,39.0]}},{"type":"Feature","properties":{"count":11},"geometry":{"type":"Point","coordinates":[138.0,36.0]}},{"type":"Feature","properties":{"count":11},"geometry":{"type":"Point","coordinates":[26.0,-30.0]}},{"type":"Feature","properties":{"count":10},"geometry":{"type":"Point","coordinates":[22.0,39.0]}},{"type":"Feature","properties":{"count":10},"geometry":{"type":"Point","coordinates":[-157.5,21.0]}},{"type":"Feature","properties":{"count":10},"geometry":{"type":"Point","coordinates":[-83.0,40.0]}},{"type":"Feature","properties":{"count":9},"geometry":{"type":"Point","coordinates":[-119.5,36.0]}},{"type":"Feature","properties":{"count":9},"geometry":{"type":"Point","coordinates":[-92.5,35.0]}},{"type":"Feature","properties":{"count":8},"geometry":{"type":"Point","coordinates":[51.5,36.0]}},{"type":"Feature","properties":{"count":8},"geometry":{"type":"Point","coordinates":[-111.5,34.0]}},{"type":"Feature","properties":{"count":8},"geometry":{"type":"Point","coordinates":[-84.5,40.0]}},{"type":"Feature","properties":{"count":8},"geometry":{"type":"Point","coordinates":[10.5,51.5]}},{"type":"Feature","properties":{"count":8},"geometry":{"type":"Point","coordinates":[-87.5,42.0]}},{"type":"Feature","properties":{"count":8},"geometry":{"type":"Point","coordinates":[135.0,-25.0]}},{"type":"Feature","properties":{"count":8},"geometry":{"type":"Point","coordinates":[34.5,31.5]}},{"type":"Feature","properties":{"count":8},"geometry":{"type":"Point","coordinates":[-120.0,34.5]}},{"type":"Feature","properties":{"count":8},"geometry":{"type":"Point","coordinates":[127.0,37.5]}},{"type":"Feature","properties":{"count":8},"geometry":{"type":"Point","coordinates":[88.5,26.5]}},{"type":"Feature","properties":{"count":7},"geometry":{"type":"Point","coordinates":[-3.5,40.5]}},{"type":"Feature","properties":{"count":7},"geometry":{"type":"Point","coordinates":[-93.0,42.0]}},{"type":"Feature","properties":{"count":7},"geometry":{"type":"Point","coordinates":[21.0,44.0]}},{"type":"Feature","properties":{"count":7},"geometry":{"type":"Point","coordinates":[2.5,49.0]}},{"type":"Feature","properties":{"count":7},"geometry":{"type":"Point","coordinates":[-102.0,23.0]}},{"type":"Feature","properties":{"count":7},"geometry":{"type":"Point","coordinates":[-6.0,54.5]}},{"type":"Feature","properties":{"count":7},"geometry":{"type":"Point","coordinates":[66.0,33.0]}},{"type":"Feature","properties":{"count":6},"geometry":{"type":"Point","coordinates":[75.5,31.0]}},{"type":"Feature","properties":{"count":6},"geometry":{"type":"Point","coordinates":[126.0,39.0]}},{"type":"Feature","properties":{"count":6},"geometry":{"type":"Point","coordinates":[39.5,19.0]}},{"type":"Feature","properties":{"count":6},"geometry":{"type":"Point","coordinates":[-7.0,53.5]}},{"type":"Feature","properties":{"count":5},"geometry":{"type":"Point","coordinates":[25.0,57.0]}},{"type":"Feature","properties":{"count":5},"geometry":{"type":"Point","coordinates":[-84.0,36.0]}},{"type":"Feature","properties":{"count":5},"geometry":{"type":"Point","coordinates":[-87.0,36.0]}},{"type":"Feature","properties":{"count":5},"geometry":{"type":"Point","coordinates":[76.0,13.5]}},{"type":"Feature","properties":{"count":5},"geometry":{"type":"Point","coordinates":[44.0,15.5]}},{"type":"Feature","properties":{"count":5},"geometry":{"type":"Point","coordinates":[-78.0,38.0]}},{"type":"Feature","properties":{"count":4},"geometry":{"type":"Point","coordinates":[38.0,35.0]}},{"type":"Feature","properties":{"count":4},"geometry":{"type":"Point","coordinates":[-75.0,40.0]}},{"type":"Feature","properties":{"count":4},"geometry":{"type":"Point","coordinates":[20.5,45.0]}},{"type":"Feature","properties":{"count":4},"geometry":{"type":"Point","coordinates":[-81.5,28.0]}},{"type":"Feature","properties":{"count":4},"geometry":{"type":"Point","coordinates":[35.5,32.0]}},{"type":"Feature","properties":{"count":4},"geometry":{"type":"Point","coordinates":[36.0,34.0]}},{"type":"Feature","properties":{"count":4},"geometry":{"type":"Point","coordinates":[29.0,47.0]}},{"type":"Feature","properties":{"count":4},"geometry":{"type":"Point","coordinates":[116.5,40.0]}},{"type":"Feature","properties":{"count":4},"geometry":{"type":"Point","coordinates":[36.5,28.5]}},{"type":"Feature","properties":{"count":4},"geometry":{"type":"Point","coordinates":[92.0,21.5]}},{"type":"Feature","properties":{"count":4},"geometry":{"type":"Point","coordinates":[100.5,58.0]}},{"type":"Feature","properties":{"count":4},"geometry":{"type":"Point","coordinates":[90.5,23.5]}},{"type":"Feature","properties":{"count":4},"geometry":{"type":"Point","coordinates":[10.0,62.0]}},{"type":"Feature","properties":{"count":4},"geometry":{"type":"Point","coordinates":[-89.0,40.5]}},{"type":"Feature","properties":{"count":4},"geometry":{"type":"Point","coordinates":[43.5,12.5]}},{"type":"Feature","properties":{"count":4},"geometry":{"type":"Point","coordinates":[78.5,23.5]}},{"type":"Feature","properties":{"count":3},"geometry":{"type":"Point","coordinates":[-97.5,31.0]}},{"type":"Feature","properties":{"count":3},"geometry":{"type":"Point","coordinates":[36.0,31.0]}},{"type":"Feature","properties":{"count":3},"geometry":{"type":"Point","coordinates":[-100.5,24.0]}},{"type":"Feature","properties":{"count":3},"geometry":{"type":"Point","coordinates":[73.0,33.5]}},{"type":"Feature","properties":{"count":3},"geometry":{"type":"Point","coordinates":[-158.0,21.5]}},{"type":"Feature","properties":{"count":3},"geometry":{"type":"Point","coordinates":[77.5,14.5]}},{"type":"Feature","properties":{"count":3},"geometry":{"type":"Point","coordinates":[103.5,1.5]}},{"type":"Feature","properties":{"count":2},"geometry":{"type":"Point","coordinates":[2.0,41.5]}},{"type":"Feature","properties":{"count":2},"geometry":{"type":"Point","coordinates":[58.5,23.5]}},{"type":"Feature","properties":{"count":2},"geometry":{"type":"Point","coordinates":[75.0,32.5]}},{"type":"Feature","properties":{"count":2},"geometry":{"type":"Point","coordinates":[-98.5,41.0]}},{"type":"Feature","properties":{"count":2},"geometry":{"type":"Point","coordinates":[-96.0,41.5]}},{"type":"Feature","properties":{"count":2},"geometry":{"type":"Point","coordinates":[-77.5,40.5]}},{"type":"Feature","properties":{"count":2},"geometry":{"type":"Point","coordinates":[-74.0,41.0]}},{"type":"Feature","properties":{"count":2},"geometry":{"type":"Point","coordinates":[38.5,48.5]}},{"type":"Feature","properties":{"count":2},"geometry":{"type":"Point","coordinates":[-99.0,19.5]}},{"type":"Feature","properties":{"count":2},"geometry":{"type":"Point","coordinates":[-75.5,45.5]}},{"type":"Feature","properties":{"count":2},"geometry":{"type":"Point","coordinates":[-91.0,42.5]}},{"type":"Feature","properties":{"count":2},"geometry":{"type":"Point","coordinates":[35.5,37.0]}},{"type":"Feature","properties":{"count":2},"geometry":{"type":"Point","coordinates":[-110.5,47.0]}},{"type":"Feature","properties":{"count":2},"geometry":{"type":"Point","coordinates":[2.0,46.0]}},{"type":"Feature","properties":{"count":2},"geometry":{"type":"Point","coordinates":[6.0,52.5]}},{"type":"Feature","properties":{"count":2},"geometry":{"type":"Point","coordinates":[30.5,46.5]}},{"type":"Feature","properties":{"count":2},"geometry":{"type":"Point","coordinates":[32.5,46.5]}},{"type":"Feature","properties":{"count":2},"geometry":{"type":"Point","coordinates":[112.5,2.5]}},{"type":"Feature","properties":{"count":2},"geometry":{"type":"Point","coordinates":[100.0,15.0]}},{"type":"Feature","properties":{"count":2},"geometry":{"type":"Point","coordinates":[33.0,34.5]}},{"type":"Feature","properties":{"count":2},"geometry":{"type":"Point","coordinates":[75.0,31.5]}},{"type":"Feature","properties":{"count":2},"geometry":{"type":"Point","coordinates":[81.0,27.0]}},{"type":"Feature","properties":{"count":2},"geometry":{"type":"Point","coordinates":[-83.5,33.0]}},{"type":"Feature","properties":{"count":2},"geometry":{"type":"Point","coordinates":[31.0,-18.0]}},{"type":"Feature","properties":{"count":2},"geometry":{"type":"Point","coordinates":[-91.5,43.0]}},{"type":"Feature","properties":{"count":2},"geometry":{"type":"Point","coordinates":[-71.5,42.0]}},{"type":"Feature","properties":{"count":2},"geometry":{"type":"Point","coordinates":[-117.0,32.5]}},{"type":"Feature","properties":{"count":2},"geometry":{"type":"Point","coordinates":[78.5,14.0]}},{"type":"Feature","properties":{"count":2},"geometry":{"type":"Point","coordinates":[79.0,14.5]}},{"type":"Feature","properties":{"count":2},"geometry":{"type":"Point","coordinates":[77.5,15.5]}},{"type":"Feature","properties":{"count":2},"geometry":{"type":"Point","coordinates":[79.0,13.0]}},{"type":"Feature","properties":{"count":2},"geometry":{"type":"Point","coordinates":[-70.0,41.5]}},{"type":"Feature","properties":{"count":2},"geometry":{"type":"Point","coordinates":[46.0,14.0]}},{"type":"Feature","properties":{"count":2},"geometry":{"type":"Point","coordinates":[-114.5,44.0]}},{"type":"Feature","properties":{"count":2},"geometry":{"type":"Point","coordinates":[-83.5,36.0]}},{"type":"Feature","properties":{"count":2},"geometry":{"type":"Point","coordinates":[-81.0,34.0]}},{"type":"Feature","properties":{"count":2},"geometry":{"type":"Point","coordinates":[77.5,23.5]}},{"type":"Feature","properties":{"count":2},"geometry":{"type":"Point","coordinates":[-73.5,45.5]}},{"type":"Feature","properties":{"count":2},"geometry":{"type":"Point","coordinates":[-80.0,35.5]}},{"type":"Feature","properties":{"count":2},"geometry":{"type":"Point","coordinates":[-105.5,40.0]}},{"type":"Feature","properties":{"count":2},"geometry":{"type":"Point","coordinates":[-105.5,39.0]}},{"type":"Feature","properties":{"count":2},"geometry":{"type":"Point","coordinates":[39.0,21.5]}},{"type":"Feature","properties":{"count":2},"geometry":{"type":"Point","coordinates":[12.5,42.0]}},{"type":"Feature","properties":{"count":2},"geometry":{"type":"Point","coordinates":[80.0,20.5]}},{"type":"Feature","properties":{"count":1},"geometry":{"type":"Point","coordinates":[-68.0,10.0]}},{"type":"Feature","properties":{"count":1},"geometry":{"type":"Point","coordinates":[75.0,34.5]}},{"type":"Feature","properties":{"count":1},"geometry":{"type":"Point","coordinates":[-92.5,38.5]}},{"type":"Feature","properties":{"count":1},"geometry":{"type":"Point","coordinates":[23.5,38.0]}},{"type":"Feature","properties":{"count":1},"geometry":{"type":"Point","coordinates":[77.0,8.5]}},{"type":"Feature","properties":{"count":1},"geometry":{"type":"Point","coordinates":[91.5,26.0]}},{"type":"Feature","properties":{"count":1},"geometry":{"type":"Point","coordinates":[-2.5,57.0]}},{"type":"Feature","properties":{"count":1},"geometry":{"type":"Point","coordinates":[74.5,43.0]}},{"type":"Feature","properties":{"count":1},"geometry":{"type":"Point","coordinates":[-64.0,-34.0]}},{"type":"Feature","properties":{"count":1},"geometry":{"type":"Point","coordinates":[-8.0,39.5]}},{"type":"Feature","properties":{"count":1},"geometry":{"type":"Point","coordinates":[76.5,34.0]}},{"type":"Feature","properties":{"count":1},"geometry":{"type":"Point","coordinates":[-114.0,51.0]}},{"type":"Feature","properties":{"count":1},"geometry":{"type":"Point","coordinates":[22.0,42.0]}},{"type":"Feature","properties":{"count":1},"geometry":{"type":"Point","coordinates":[-118.0,34.0]}},{"type":"Feature","properties":{"count":1},"geometry":{"type":"Point","coordinates":[-80.5,27.0]}},{"type":"Feature","properties":{"count":1},"geometry":{"type":"Point","coordinates":[-122.0,44.5]}},{"type":"Feature","properties":{"count":1},"geometry":{"type":"Point","coordinates":[13.0,43.0]}},{"type":"Feature","properties":{"count":1},"geometry":{"type":"Point","coordinates":[4.5,45.5]}},{"type":"Feature","properties":{"count":1},"geometry":{"type":"Point","coordinates":[3.0,28.0]}},{"type":"Feature","properties":{"count":1},"geometry":{"type":"Point","coordinates":[-84.5,43.5]}},{"type":"Feature","properties":{"count":1},"geometry":{"type":"Point","coordinates":[36.5,50.5]}},{"type":"Feature","properties":{"count":1},"geometry":{"type":"Point","coordinates":[36.5,50.0]}},{"type":"Feature","properties":{"count":1},"geometry":{"type":"Point","coordinates":[-9.5,6.5]}},{"type":"Feature","properties":{"count":1},"geometry":{"type":"Point","coordinates":[35.0,43.0]}},{"type":"Feature","properties":{"count":1},"geometry":{"type":"Point","coordinates":[37.0,49.0]}},{"type":"Feature","properties":{"count":1},"geometry":{"type":"Point","coordinates":[39.5,48.5]}},{"type":"Feature","properties":{"count":1},"geometry":{"type":"Point","coordinates":[-43.0,-23.0]}},{"type":"Feature","properties":{"count":1},"geometry":{"type":"Point","coordinates":[84.5,20.5]}},{"type":"Feature","properties":{"count":1},"geometry":{"type":"Point","coordinates":[128.0,27.0]}},{"type":"Feature","properties":{"count":1},"geometry":{"type":"Point","coordinates":[73.5,30.0]}},{"type":"Feature","properties":{"count":1},"geometry":{"type":"Point","coordinates":[12.5,66.0]}},{"type":"Feature","properties":{"count":1},"geometry":{"type":"Point","coordinates":[13.5,52.5]}},{"type":"Feature","properties":{"count":1},"geometry":{"type":"Point","coordinates":[-120.5,34.5]}},{"type":"Feature","properties":{"count":1},"geometry":{"type":"Point","coordinates":[-118.5,34.0]}},{"type":"Feature","properties":{"count":1},"geometry":{"type":"Point","coordinates":[28.0,-26.0]}},{"type":"Feature","properties":{"count":1},"geometry":{"type":"Point","coordinates":[32.0,-20.0]}},{"type":"Feature","properties":{"count":1},"geometry":{"type":"Point","coordinates":[30.0,-18.0]}},{"type":"Feature","properties":{"count":1},"geometry":{"type":"Point","coordinates":[29.5,-31.5]}},{"type":"Feature","properties":{"count":1},"geometry":{"type":"Point","coordinates":[25.5,-34.0]}},{"type":"Feature","properties":{"count":1},"geometry":{"type":"Point","coordinates":[127.5,35.0]}},{"type":"Feature","properties":{"count":1},"geometry":{"type":"Point","coordinates":[0.0,51.0]}},{"type":"Feature","properties":{"count":1},"geometry":{"type":"Point","coordinates":[-0.5,51.5]}},{"type":"Feature","properties":{"count":1},"geometry":{"type":"Point","coordinates":[-106.0,35.0]}},{"type":"Feature","properties":{"count":1},"geometry":{"type":"Point","coordinates":[77.5,14.0]}},{"type":"Feature","properties":{"count":1},"geometry":{"type":"Point","coordinates":[78.5,14.5]}},{"type":"Feature","properties":{"count":1},"geometry":{"type":"Point","coordinates":[78.5,15.5]}},{"type":"Feature","properties":{"count":1},"geometry":{"type":"Point","coordinates":[78.5,15.0]}},{"type":"Feature","properties":{"count":1},"geometry":{"type":"Point","coordinates":[79.0,14.0]}},{"type":"Feature","properties":{"count":1},"geometry":{"type":"Point","coordinates":[78.0,16.0]}},{"type":"Feature","properties":{"count":1},"geometry":{"type":"Point","coordinates":[79.5,13.5]}},{"type":"Feature","properties":{"count":1},"geometry":{"type":"Point","coordinates":[84.0,18.5]}},{"type":"Feature","properties":{"count":1},"geometry":{"type":"Point","coordinates":[77.5,15.0]}},{"type":"Feature","properties":{"count":1},"geometry":{"type":"Point","coordinates":[-122.5,38.0]}},{"type":"Feature","properties":{"count":1},"geometry":{"type":"Point","coordinates":[43.0,13.5]}},{"type":"Feature","properties":{"count":1},"geometry":{"type":"Point","coordinates":[46.5,22.5]}},{"type":"Feature","properties":{"count":1},"geometry":{"type":"Point","coordinates":[77.5,13.0]}},{"type":"Feature","properties":{"count":1},"geometry":{"type":"Point","coordinates":[80.5,13.0]}},{"type":"Feature","properties":{"count":1},"geometry":{"type":"Point","coordinates":[76.5,14.5]}},{"type":"Feature","properties":{"count":1},"geometry":{"type":"Point","coordinates":[76.5,14.0]}},{"type":"Feature","properties":{"count":1},"geometry":{"type":"Point","coordinates":[-112.0,43.5]}},{"type":"Feature","properties":{"count":1},"geometry":{"type":"Point","coordinates":[-69.5,44.5]}},{"type":"Feature","properties":{"count":1},"geometry":{"type":"Point","coordinates":[-87.0,33.0]}},{"type":"Feature","properties":{"count":1},"geometry":{"type":"Point","coordinates":[-97.0,35.5]}},{"type":"Feature","properties":{"count":1},"geometry":{"type":"Point","coordinates":[0.5,51.5]}},{"type":"Feature","properties":{"count":1},"geometry":{"type":"Point","coordinates":[95.5,28.0]}},{"type":"Feature","properties":{"count":1},"geometry":{"type":"Point","coordinates":[76.5,32.0]}},{"type":"Feature","properties":{"count":1},"geometry":{"type":"Point","coordinates":[77.0,32.0]}},{"type":"Feature","properties":{"count":1},"geometry":{"type":"Point","coordinates":[78.5,31.5]}},{"type":"Feature","properties":{"count":1},"geometry":{"type":"Point","coordinates":[79.5,10.5]}},{"type":"Feature","properties":{"count":1},"geometry":{"type":"Point","coordinates":[76.0,32.5]}},{"type":"Feature","properties":{"count":1},"geometry":{"type":"Point","coordinates":[31.0,30.0]}},{"type":"Feature","properties":{"count":1},"geometry":{"type":"Point","coordinates":[-78.5,36.0]}},{"type":"Feature","properties":{"count":1},"geometry":{"type":"Point","coordinates":[151.0,-34.0]}},{"type":"Feature","properties":{"count":1},"geometry":{"type":"Point","coordinates":[72.0,35.5]}},{"type":"Feature","properties":{"count":1},"geometry":{"type":"Point","coordinates":[-76.5,39.5]}},{"type":"Feature","properties":{"count":1},"geometry":{"type":"Point","coordinates":[-3.0,52.0]}},{"type":"Feature","properties":{"count":1},"geometry":{"type":"Point","coordinates":[-2.5,52.0]}},{"type":"Feature","properties":{"count":1},"geometry":{"type":"Point","coordinates":[29.0,41.0]}},{"type":"Feature","properties":{"count":1},"geometry":{"type":"Point","coordinates":[44.0,33.0]}},{"type":"Feature","properties":{"count":1},"geometry":{"type":"Point","coordinates":[74.5,16.0]}},{"type":"Feature","properties":{"count":1},"geometry":{"type":"Point","coordinates":[120.0,-5.0]}},{"type":"Feature","properties":{"count":1},"geometry":{"type":"Point","coordinates":[81.0,7.0]}},{"type":"Feature","properties":{"count":1},"geometry":{"type":"Point","coordinates":[74.0,16.5]}},{"type":"Feature","properties":{"count":1},"geometry":{"type":"Point","coordinates":[88.0,26.5]}},{"type":"Feature","properties":{"count":1},"geometry":{"type":"Point","coordinates":[77.0,29.5]}},{"type":"Feature","properties":{"count":1},"geometry":{"type":"Point","coordinates":[91.0,26.0]}},{"type":"Feature","properties":{"count":1},"geometry":{"type":"Point","coordinates":[92.0,26.0]}},{"type":"Feature","properties":{"count":1},"geometry":{"type":"Point","coordinates":[-89.5,39.5]}},{"type":"Feature","properties":{"count":1},"geometry":{"type":"Point","coordinates":[-84.5,37.5]}},{"type":"Feature","properties":{"count":1},"geometry":{"type":"Point","coordinates":[-86.5,35.0]}},{"type":"Feature","properties":{"count":1},"geometry":{"type":"Point","coordinates":[1.0,52.0]}},{"type":"Feature","properties":{"count":1},"geometry":{"type":"Point","coordinates":[20.0,52.0]}},{"type":"Feature","properties":{"count":1},"geometry":{"type":"Point","coordinates":[35.5,34.0]}}]}